[{"OBJECT_NAME":"HIBARI","OBJECT_ID":"2021-102F","EPOCH":"2026-03-09T16:55:51.090816","MEAN_MOTION":15.29554512,"ECCENTRICITY":0.00120742,"INCLINATION":97.3381,"RA_OF_ASC_NODE":115.826,"ARG_OF_PERICENTER":186.5211,"MEAN_ANOMALY":173.5875,"EPHEMERIS_TYPE":0,"CLASSIFICATION_TYPE":"U","NORAD_CAT_ID":49400,"ELEMENT_SET_NO":999,"REV_AT_EPOCH":23897,"BSTAR":0.00042758039,"MEAN_MOTION_DOT":0.00012206,"MEAN_MOTION_DDOT":0},{"OBJECT_NAME":"STARLINK-35025","OBJECT_ID":"2025-192AC","EPOCH":"2026-03-09T17:12:35.094240","MEAN_MOTION":15.3017233,"ECCENTRICITY":8.318e-5,"INCLINATION":53.1606,"RA_OF_ASC_NODE":232.5559,"ARG_OF_PERICENTER":84.1219,"MEAN_ANOMALY":275.9876,"EPHEMERIS_TYPE":0,"CLASSIFICATION_TYPE":"U","NORAD_CAT_ID":65430,"ELEMENT_SET_NO":999,"REV_AT_EPOCH":2938,"BSTAR":0.00075005278,"MEAN_MOTION_DOT":0.00021902,"MEAN_MOTION_DDOT":0}]
